{
  "type": "FeatureCollection",
  "features": [
    {
      "type": "Feature",
      "properties": {
        "norad_id": 30050,
        "name": "FENGYUN 1C DEB",
        "group": "fengyun-1c-debris",
        "lat": -18.983377605133665,
        "lon": -40.40362092262045,
        "alt_km": 827.1920900270361,
        "timestamp": "2025-12-26T21:25:53.283697+00:00",
        "meta_object_name": "FENGYUN 1C DEB",
        "meta_object_id": "1999-025PB",
        "meta_epoch": "2025-12-25T19:48:12.389760",
        "meta_mean_motion": 13.85088382,
        "meta_eccentricity": 0.01709486,
        "meta_inclination": 96.8194,
        "meta_ra_of_asc_node": 316.4593,
        "meta_arg_of_pericenter": 353.0578,
        "meta_mean_anomaly": 66.7155,
        "meta_ephemeris_type": 0,
        "meta_classification_type": "U",
        "meta_norad_cat_id": 30050,
        "meta_element_set_no": 999,
        "meta_rev_at_epoch": 95383,
        "meta_bstar": 0.0012822155,
        "meta_mean_motion_dot": 1.6e-05,
        "meta_mean_motion_ddot": 0,
        "tle_line1": "1 30050U 99025PB  25359.82514340  .00001600  00000+0  12822-2 0  9997",
        "tle_line2": "2 30050  96.8194 316.4593 0170948 353.0578  66.7155 13.85088382953832"
      },
      "geometry": {
        "type": "Point",
        "coordinates": [
          -40.40362092262045,
          -18.983377605133665
        ]
      }
    },
    {
      "type": "Feature",
      "properties": {
        "norad_id": 30052,
        "name": "FENGYUN 1C DEB",
        "group": "fengyun-1c-debris",
        "lat": 5.083604321981522,
        "lon": 25.26398476198031,
        "alt_km": 1200.953888507972,
        "timestamp": "2025-12-26T21:25:53.283707+00:00",
        "meta_object_name": "FENGYUN 1C DEB",
        "meta_object_id": "1999-025PD",
        "meta_epoch": "2025-12-26T15:01:14.373120",
        "meta_mean_motion": 13.72976523,
        "meta_eccentricity": 0.02894319,
        "meta_inclination": 99.2982,
        "meta_ra_of_asc_node": 25.8393,
        "meta_arg_of_pericenter": 195.8569,
        "meta_mean_anomaly": 289.24,
        "meta_ephemeris_type": 0,
        "meta_classification_type": "U",
        "meta_norad_cat_id": 30052,
        "meta_element_set_no": 999,
        "meta_rev_at_epoch": 94745,
        "meta_bstar": 0.0004670938,
        "meta_mean_motion_dot": 5.39e-06,
        "meta_mean_motion_ddot": 0,
        "tle_line1": "1 30052U 99025PD  25360.62586080  .00000539  00000+0  46709-3 0  9991",
        "tle_line2": "2 30052  99.2982  25.8393 0289431 195.8569 289.2400 13.72976523947450"
      },
      "geometry": {
        "type": "Point",
        "coordinates": [
          25.26398476198031,
          5.083604321981522
        ]
      }
    },
    {
      "type": "Feature",
      "properties": {
        "norad_id": 30053,
        "name": "FENGYUN 1C DEB",
        "group": "fengyun-1c-debris",
        "lat": -16.443069066541344,
        "lon": -9.52834282412614,
        "alt_km": 963.4632445346442,
        "timestamp": "2025-12-26T21:25:53.283718+00:00",
        "meta_object_name": "FENGYUN 1C DEB",
        "meta_object_id": "1999-025PE",
        "meta_epoch": "2025-12-26T10:16:55.816320",
        "meta_mean_motion": 13.94222835,
        "meta_eccentricity": 0.03314801,
        "meta_inclination": 98.5759,
        "meta_ra_of_asc_node": 172.5919,
        "meta_arg_of_pericenter": 300.3604,
        "meta_mean_anomaly": 89.4834,
        "meta_ephemeris_type": 0,
        "meta_classification_type": "U",
        "meta_norad_cat_id": 30053,
        "meta_element_set_no": 999,
        "meta_rev_at_epoch": 95177,
        "meta_bstar": 0.001864725,
        "meta_mean_motion_dot": 3.866e-05,
        "meta_mean_motion_ddot": 0,
        "tle_line1": "1 30053U 99025PE  25360.42842380  .00003866  00000+0  18647-2 0  9993",
        "tle_line2": "2 30053  98.5759 172.5919 0331480 300.3604  89.4834 13.94222835951779"
      },
      "geometry": {
        "type": "Point",
        "coordinates": [
          -9.52834282412614,
          -16.443069066541344
        ]
      }
    },
    {
      "type": "Feature",
      "properties": {
        "norad_id": 30054,
        "name": "FENGYUN 1C DEB",
        "group": "fengyun-1c-debris",
        "lat": 36.48584817518243,
        "lon": -140.2163582301599,
        "alt_km": 1199.4421628202836,
        "timestamp": "2025-12-26T21:25:53.283728+00:00",
        "meta_object_name": "FENGYUN 1C DEB",
        "meta_object_id": "1999-025PF",
        "meta_epoch": "2025-12-26T14:21:28.527840",
        "meta_mean_motion": 13.69880898,
        "meta_eccentricity": 0.02752784,
        "meta_inclination": 99.3701,
        "meta_ra_of_asc_node": 32.4823,
        "meta_arg_of_pericenter": 329.2014,
        "meta_mean_anomaly": 160.6182,
        "meta_ephemeris_type": 0,
        "meta_classification_type": "U",
        "meta_norad_cat_id": 30054,
        "meta_element_set_no": 999,
        "meta_rev_at_epoch": 94538,
        "meta_bstar": 0.0004986742,
        "meta_mean_motion_dot": 5.26e-06,
        "meta_mean_motion_ddot": 0,
        "tle_line1": "1 30054U 99025PF  25360.59824685  .00000526  00000+0  49867-3 0  9999",
        "tle_line2": "2 30054  99.3701  32.4823 0275278 329.2014 160.6182 13.69880898945380"
      },
      "geometry": {
        "type": "Point",
        "coordinates": [
          -140.2163582301599,
          36.48584817518243
        ]
      }
    },
    {
      "type": "Feature",
      "properties": {
        "norad_id": 30056,
        "name": "FENGYUN 1C DEB",
        "group": "fengyun-1c-debris",
        "lat": -60.61317569387858,
        "lon": -160.19012347072467,
        "alt_km": 1116.31203014096,
        "timestamp": "2025-12-26T21:25:53.283738+00:00",
        "meta_object_name": "FENGYUN 1C DEB",
        "meta_object_id": "1999-025PH",
        "meta_epoch": "2025-12-26T11:15:40.848192",
        "meta_mean_motion": 13.74068607,
        "meta_eccentricity": 0.02989109,
        "meta_inclination": 98.3231,
        "meta_ra_of_asc_node": 184.374,
        "meta_arg_of_pericenter": 173.7361,
        "meta_mean_anomaly": 186.7663,
        "meta_ephemeris_type": 0,
        "meta_classification_type": "U",
        "meta_norad_cat_id": 30056,
        "meta_element_set_no": 999,
        "meta_rev_at_epoch": 94164,
        "meta_bstar": 0.0024592955,
        "meta_mean_motion_dot": 3.159e-05,
        "meta_mean_motion_ddot": 0,
        "tle_line1": "1 30056U 99025PH  25360.46922278  .00003159  00000+0  24593-2 0  9997",
        "tle_line2": "2 30056  98.3231 184.3740 0298910 173.7361 186.7663 13.74068607941649"
      },
      "geometry": {
        "type": "Point",
        "coordinates": [
          -160.19012347072467,
          -60.61317569387858
        ]
      }
    },
    {
      "type": "Feature",
      "properties": {
        "norad_id": 30057,
        "name": "FENGYUN 1C DEB",
        "group": "fengyun-1c-debris",
        "lat": -75.25335476119632,
        "lon": 104.72710191605553,
        "alt_km": 1267.559990448025,
        "timestamp": "2025-12-26T21:25:53.283748+00:00",
        "meta_object_name": "FENGYUN 1C DEB",
        "meta_object_id": "1999-025PJ",
        "meta_epoch": "2025-12-26T11:18:05.614848",
        "meta_mean_motion": 13.57154565,
        "meta_eccentricity": 0.02916616,
        "meta_inclination": 98.8824,
        "meta_ra_of_asc_node": 67.8972,
        "meta_arg_of_pericenter": 111.1508,
        "meta_mean_anomaly": 269.1129,
        "meta_ephemeris_type": 0,
        "meta_classification_type": "U",
        "meta_norad_cat_id": 30057,
        "meta_element_set_no": 999,
        "meta_rev_at_epoch": 93422,
        "meta_bstar": 0.0012210051,
        "meta_mean_motion_dot": 1.111e-05,
        "meta_mean_motion_ddot": 0,
        "tle_line1": "1 30057U 99025PJ  25360.47089832  .00001111  00000+0  12210-2 0  9998",
        "tle_line2": "2 30057  98.8824  67.8972 0291661 111.1508 269.1129 13.57154565934229"
      },
      "geometry": {
        "type": "Point",
        "coordinates": [
          104.72710191605553,
          -75.25335476119632
        ]
      }
    },
    {
      "type": "Feature",
      "properties": {
        "norad_id": 30058,
        "name": "FENGYUN 1C DEB",
        "group": "fengyun-1c-debris",
        "lat": -74.61880759440571,
        "lon": 146.47122980286184,
        "alt_km": 1265.1279870644903,
        "timestamp": "2025-12-26T21:25:53.283759+00:00",
        "meta_object_name": "FENGYUN 1C DEB",
        "meta_object_id": "1999-025PK",
        "meta_epoch": "2025-12-25T22:58:24.150144",
        "meta_mean_motion": 13.48253074,
        "meta_eccentricity": 0.0315758,
        "meta_inclination": 99.6499,
        "meta_ra_of_asc_node": 3.7701,
        "meta_arg_of_pericenter": 119.5682,
        "meta_mean_anomaly": 276.4839,
        "meta_ephemeris_type": 0,
        "meta_classification_type": "U",
        "meta_norad_cat_id": 30058,
        "meta_element_set_no": 999,
        "meta_rev_at_epoch": 93026,
        "meta_bstar": 0.00070421,
        "meta_mean_motion_dot": 5.51e-06,
        "meta_mean_motion_ddot": 0,
        "tle_line1": "1 30058U 99025PK  25359.95722396  .00000551  00000+0  70421-3 0  9995",
        "tle_line2": "2 30058  99.6499   3.7701 0315758 119.5682 276.4839 13.48253074930269"
      },
      "geometry": {
        "type": "Point",
        "coordinates": [
          146.47122980286184,
          -74.61880759440571
        ]
      }
    }
  ]
}